[{"OBJECT_NAME":"STARLINK-31315","OBJECT_ID":"2024-020J","EPOCH":"2026-03-09T22:39:40.717728","MEAN_MOTION":15.30173889,"ECCENTRICITY":0.00011676,"INCLINATION":53.1606,"RA_OF_ASC_NODE":295.2866,"ARG_OF_PERICENTER":97.673,"MEAN_ANOMALY":262.4403,"EPHEMERIS_TYPE":0,"CLASSIFICATION_TYPE":"U","NORAD_CAT_ID":58884,"ELEMENT_SET_NO":999,"REV_AT_EPOCH":11847,"BSTAR":-5.8099467e-5,"MEAN_MOTION_DOT":-2.078e-5,"MEAN_MOTION_DDOT":0},{"OBJECT_NAME":"GEOSCAN 3 (RS92S3)","OBJECT_ID":"2025-155T","EPOCH":"2026-03-09T22:52:10.587648","MEAN_MOTION":15.31696739,"ECCENTRICITY":0.00068078,"INCLINATION":97.4455,"RA_OF_ASC_NODE":37.9971,"ARG_OF_PERICENTER":154.1387,"MEAN_ANOMALY":206.0196,"EPHEMERIS_TYPE":0,"CLASSIFICATION_TYPE":"U","NORAD_CAT_ID":64893,"ELEMENT_SET_NO":999,"REV_AT_EPOCH":6564,"BSTAR":0.00078414081,"MEAN_MOTION_DOT":0.00023985,"MEAN_MOTION_DDOT":0}]
